<?xml version="1.0" encoding="UTF-8"?>
<ndm xmlns:xsi="http://www.w3.org/2001/XMLSchema-instance" xsi:noNamespaceSchemaLocation="https://sanaregistry.org/r/ndmxml_unqualified/ndmxml-2.0.0-master-2.0.xsd">
<omm id="CCSDS_OMM_VERS" version="2.0">
<header><CREATION_DATE/><ORIGINATOR/></header><body><segment><metadata><OBJECT_NAME>ORBCOMM FM20 [+]</OBJECT_NAME><OBJECT_ID>1998-046D</OBJECT_ID><CENTER_NAME>EARTH</CENTER_NAME><REF_FRAME>TEME</REF_FRAME><TIME_SYSTEM>UTC</TIME_SYSTEM><MEAN_ELEMENT_THEORY>SGP4</MEAN_ELEMENT_THEORY></metadata><data><meanElements><EPOCH>2023-11-26T09:32:50.044416</EPOCH><MEAN_MOTION>14.34633618</MEAN_MOTION><ECCENTRICITY>.0002507</ECCENTRICITY><INCLINATION>44.9964</INCLINATION><RA_OF_ASC_NODE>349.0365</RA_OF_ASC_NODE><ARG_OF_PERICENTER>265.7333</ARG_OF_PERICENTER><MEAN_ANOMALY>94.3228</MEAN_ANOMALY></meanElements><tleParameters><EPHEMERIS_TYPE>0</EPHEMERIS_TYPE><CLASSIFICATION_TYPE>U</CLASSIFICATION_TYPE><NORAD_CAT_ID>25416</NORAD_CAT_ID><ELEMENT_SET_NO>999</ELEMENT_SET_NO><REV_AT_EPOCH>32251</REV_AT_EPOCH><BSTAR>.72231E-3</BSTAR><MEAN_MOTION_DOT>.192E-4</MEAN_MOTION_DOT><MEAN_MOTION_DDOT>0</MEAN_MOTION_DDOT></tleParameters></data></segment></body></omm>
<omm id="CCSDS_OMM_VERS" version="2.0">
<header><CREATION_DATE/><ORIGINATOR/></header><body><segment><metadata><OBJECT_NAME>ORBCOMM FM16 [-]</OBJECT_NAME><OBJECT_ID>1998-046E</OBJECT_ID><CENTER_NAME>EARTH</CENTER_NAME><REF_FRAME>TEME</REF_FRAME><TIME_SYSTEM>UTC</TIME_SYSTEM><MEAN_ELEMENT_THEORY>SGP4</MEAN_ELEMENT_THEORY></metadata><data><meanElements><EPOCH>2023-11-26T14:17:38.932800</EPOCH><MEAN_MOTION>14.35395729</MEAN_MOTION><ECCENTRICITY>.000564</ECCENTRICITY><INCLINATION>44.9952</INCLINATION><RA_OF_ASC_NODE>344.9729</RA_OF_ASC_NODE><ARG_OF_PERICENTER>302.5984</ARG_OF_PERICENTER><MEAN_ANOMALY>57.4318</MEAN_ANOMALY></meanElements><tleParameters><EPHEMERIS_TYPE>0</EPHEMERIS_TYPE><CLASSIFICATION_TYPE>U</CLASSIFICATION_TYPE><NORAD_CAT_ID>25417</NORAD_CAT_ID><ELEMENT_SET_NO>999</ELEMENT_SET_NO><REV_AT_EPOCH>32246</REV_AT_EPOCH><BSTAR>.10644E-2</BSTAR><MEAN_MOTION_DOT>.2944E-4</MEAN_MOTION_DOT><MEAN_MOTION_DDOT>0</MEAN_MOTION_DDOT></tleParameters></data></segment></body></omm>
<omm id="CCSDS_OMM_VERS" version="2.0">
<header><CREATION_DATE/><ORIGINATOR/></header><body><segment><metadata><OBJECT_NAME>ORBCOMM FM15 [-]</OBJECT_NAME><OBJECT_ID>1998-046F</OBJECT_ID><CENTER_NAME>EARTH</CENTER_NAME><REF_FRAME>TEME</REF_FRAME><TIME_SYSTEM>UTC</TIME_SYSTEM><MEAN_ELEMENT_THEORY>SGP4</MEAN_ELEMENT_THEORY></metadata><data><meanElements><EPOCH>2023-11-26T02:30:39.504096</EPOCH><MEAN_MOTION>14.35149746</MEAN_MOTION><ECCENTRICITY>.0005104</ECCENTRICITY><INCLINATION>44.9988</INCLINATION><RA_OF_ASC_NODE>350.9791</RA_OF_ASC_NODE><ARG_OF_PERICENTER>300.1304</ARG_OF_PERICENTER><MEAN_ANOMALY>59.9036</MEAN_ANOMALY></meanElements><tleParameters><EPHEMERIS_TYPE>0</EPHEMERIS_TYPE><CLASSIFICATION_TYPE>U</CLASSIFICATION_TYPE><NORAD_CAT_ID>25418</NORAD_CAT_ID><ELEMENT_SET_NO>999</ELEMENT_SET_NO><REV_AT_EPOCH>32240</REV_AT_EPOCH><BSTAR>.14928E-2</BSTAR><MEAN_MOTION_DOT>.4165E-4</MEAN_MOTION_DOT><MEAN_MOTION_DDOT>0</MEAN_MOTION_DDOT></tleParameters></data></segment></body></omm>
<omm id="CCSDS_OMM_VERS" version="2.0">
<header><CREATION_DATE/><ORIGINATOR/></header><body><segment><metadata><OBJECT_NAME>ORBCOMM FM14 [-]</OBJECT_NAME><OBJECT_ID>1998-046G</OBJECT_ID><CENTER_NAME>EARTH</CENTER_NAME><REF_FRAME>TEME</REF_FRAME><TIME_SYSTEM>UTC</TIME_SYSTEM><MEAN_ELEMENT_THEORY>SGP4</MEAN_ELEMENT_THEORY></metadata><data><meanElements><EPOCH>2023-11-26T01:57:15.075936</EPOCH><MEAN_MOTION>14.35272678</MEAN_MOTION><ECCENTRICITY>.0004283</ECCENTRICITY><INCLINATION>44.9978</INCLINATION><RA_OF_ASC_NODE>350.3930</RA_OF_ASC_NODE><ARG_OF_PERICENTER>287.1029</ARG_OF_PERICENTER><MEAN_ANOMALY>101.7273</MEAN_ANOMALY></meanElements><tleParameters><EPHEMERIS_TYPE>0</EPHEMERIS_TYPE><CLASSIFICATION_TYPE>U</CLASSIFICATION_TYPE><NORAD_CAT_ID>25419</NORAD_CAT_ID><ELEMENT_SET_NO>999</ELEMENT_SET_NO><REV_AT_EPOCH>32235</REV_AT_EPOCH><BSTAR>.15468E-2</BSTAR><MEAN_MOTION_DOT>.4331E-4</MEAN_MOTION_DOT><MEAN_MOTION_DDOT>0</MEAN_MOTION_DDOT></tleParameters></data></segment></body></omm>
<omm id="CCSDS_OMM_VERS" version="2.0">
<header><CREATION_DATE/><ORIGINATOR/></header><body><segment><metadata><OBJECT_NAME>ORBCOMM FM13 [+]</OBJECT_NAME><OBJECT_ID>1998-046H</OBJECT_ID><CENTER_NAME>EARTH</CENTER_NAME><REF_FRAME>TEME</REF_FRAME><TIME_SYSTEM>UTC</TIME_SYSTEM><MEAN_ELEMENT_THEORY>SGP4</MEAN_ELEMENT_THEORY></metadata><data><meanElements><EPOCH>2023-11-26T02:47:32.763552</EPOCH><MEAN_MOTION>14.34691108</MEAN_MOTION><ECCENTRICITY>.0006362</ECCENTRICITY><INCLINATION>44.9997</INCLINATION><RA_OF_ASC_NODE>354.2605</RA_OF_ASC_NODE><ARG_OF_PERICENTER>290.7012</ARG_OF_PERICENTER><MEAN_ANOMALY>69.3153</MEAN_ANOMALY></meanElements><tleParameters><EPHEMERIS_TYPE>0</EPHEMERIS_TYPE><CLASSIFICATION_TYPE>U</CLASSIFICATION_TYPE><NORAD_CAT_ID>25420</NORAD_CAT_ID><ELEMENT_SET_NO>999</ELEMENT_SET_NO><REV_AT_EPOCH>32143</REV_AT_EPOCH><BSTAR>.10177E-2</BSTAR><MEAN_MOTION_DOT>.2767E-4</MEAN_MOTION_DOT><MEAN_MOTION_DDOT>0</MEAN_MOTION_DDOT></tleParameters></data></segment></body></omm>
<omm id="CCSDS_OMM_VERS" version="2.0">
<header><CREATION_DATE/><ORIGINATOR/></header><body><segment><metadata><OBJECT_NAME>ORBCOMM FM21 [-]</OBJECT_NAME><OBJECT_ID>1998-053A</OBJECT_ID><CENTER_NAME>EARTH</CENTER_NAME><REF_FRAME>TEME</REF_FRAME><TIME_SYSTEM>UTC</TIME_SYSTEM><MEAN_ELEMENT_THEORY>SGP4</MEAN_ELEMENT_THEORY></metadata><data><meanElements><EPOCH>2023-11-26T09:53:35.712096</EPOCH><MEAN_MOTION>14.34696487</MEAN_MOTION><ECCENTRICITY>.0002046</ECCENTRICITY><INCLINATION>45.0090</INCLINATION><RA_OF_ASC_NODE>77.0007</RA_OF_ASC_NODE><ARG_OF_PERICENTER>227.9078</ARG_OF_PERICENTER><MEAN_ANOMALY>132.1595</MEAN_ANOMALY></meanElements><tleParameters><EPHEMERIS_TYPE>0</EPHEMERIS_TYPE><CLASSIFICATION_TYPE>U</CLASSIFICATION_TYPE><NORAD_CAT_ID>25475</NORAD_CAT_ID><ELEMENT_SET_NO>999</ELEMENT_SET_NO><REV_AT_EPOCH>31549</REV_AT_EPOCH><BSTAR>.8321E-3</BSTAR><MEAN_MOTION_DOT>.2236E-4</MEAN_MOTION_DOT><MEAN_MOTION_DDOT>0</MEAN_MOTION_DDOT></tleParameters></data></segment></body></omm>
<omm id="CCSDS_OMM_VERS" version="2.0">
<header><CREATION_DATE/><ORIGINATOR/></header><body><segment><metadata><OBJECT_NAME>ORBCOMM FM22 [-]</OBJECT_NAME><OBJECT_ID>1998-053B</OBJECT_ID><CENTER_NAME>EARTH</CENTER_NAME><REF_FRAME>TEME</REF_FRAME><TIME_SYSTEM>UTC</TIME_SYSTEM><MEAN_ELEMENT_THEORY>SGP4</MEAN_ELEMENT_THEORY></metadata><data><meanElements><EPOCH>2023-11-26T08:57:20.406240</EPOCH><MEAN_MOTION>14.35087705</MEAN_MOTION><ECCENTRICITY>.0003774</ECCENTRICITY><INCLINATION>45.0081</INCLINATION><RA_OF_ASC_NODE>75.0593</RA_OF_ASC_NODE><ARG_OF_PERICENTER>236.4734</ARG_OF_PERICENTER><MEAN_ANOMALY>123.5753</MEAN_ANOMALY></meanElements><tleParameters><EPHEMERIS_TYPE>0</EPHEMERIS_TYPE><CLASSIFICATION_TYPE>U</CLASSIFICATION_TYPE><NORAD_CAT_ID>25476</NORAD_CAT_ID><ELEMENT_SET_NO>999</ELEMENT_SET_NO><REV_AT_EPOCH>31547</REV_AT_EPOCH><BSTAR>.96553E-3</BSTAR><MEAN_MOTION_DOT>.2639E-4</MEAN_MOTION_DOT><MEAN_MOTION_DDOT>0</MEAN_MOTION_DDOT></tleParameters></data></segment></body></omm>
<omm id="CCSDS_OMM_VERS" version="2.0">
<header><CREATION_DATE/><ORIGINATOR/></header><body><segment><metadata><OBJECT_NAME>ORBCOMM FM23 [-]</OBJECT_NAME><OBJECT_ID>1998-053C</OBJECT_ID><CENTER_NAME>EARTH</CENTER_NAME><REF_FRAME>TEME</REF_FRAME><TIME_SYSTEM>UTC</TIME_SYSTEM><MEAN_ELEMENT_THEORY>SGP4</MEAN_ELEMENT_THEORY></metadata><data><meanElements><EPOCH>2023-11-26T10:37:13.437696</EPOCH><MEAN_MOTION>14.34681740</MEAN_MOTION><ECCENTRICITY>.0003023</ECCENTRICITY><INCLINATION>45.0091</INCLINATION><RA_OF_ASC_NODE>79.3064</RA_OF_ASC_NODE><ARG_OF_PERICENTER>231.3637</ARG_OF_PERICENTER><MEAN_ANOMALY>128.6939</MEAN_ANOMALY></meanElements><tleParameters><EPHEMERIS_TYPE>0</EPHEMERIS_TYPE><CLASSIFICATION_TYPE>U</CLASSIFICATION_TYPE><NORAD_CAT_ID>25477</NORAD_CAT_ID><ELEMENT_SET_NO>999</ELEMENT_SET_NO><REV_AT_EPOCH>31564</REV_AT_EPOCH><BSTAR>.95604E-3</BSTAR><MEAN_MOTION_DOT>.259E-4</MEAN_MOTION_DOT><MEAN_MOTION_DDOT>0</MEAN_MOTION_DDOT></tleParameters></data></segment></body></omm>

</ndm>
