ORBCOMM FM20 [+]        
1 25416U 98046D   23330.39780144  .00001920  00000+0  72231-3 0  9991
2 25416  44.9964 349.0365 0002507 265.7333  94.3228 14.34633618322519
ORBCOMM FM16 [-]        
1 25417U 98046E   23330.59558950  .00002944  00000+0  10644-2 0  9998
2 25417  44.9952 344.9729 0005640 302.5984  57.4318 14.35395729322461
ORBCOMM FM15 [-]        
1 25418U 98046F   23330.10462389  .00004165  00000+0  14928-2 0  9992
2 25418  44.9988 350.9791 0005104 300.1304  59.9036 14.35149746322406
ORBCOMM FM14 [-]        
1 25419U 98046G   23330.08142449  .00004331  00000+0  15468-2 0  9997
2 25419  44.9978 350.3930 0004283 287.1029 101.7273 14.35272678322354
ORBCOMM FM13 [+]        
1 25420U 98046H   23330.11635143  .00002767  00000+0  10177-2 0  9994
2 25420  44.9997 354.2605 0006362 290.7012  69.3153 14.34691108321437
ORBCOMM FM21 [-]        
1 25475U 98053A   23330.41221889  .00002236  00000+0  83210-3 0  9993
2 25475  45.0090  77.0007 0002046 227.9078 132.1595 14.34696487315491
ORBCOMM FM22 [-]        
1 25476U 98053B   23330.37315285  .00002639  00000+0  96553-3 0  9994
2 25476  45.0081  75.0593 0003774 236.4734 123.5753 14.35087705315479
ORBCOMM FM23 [-]        
1 25477U 98053C   23330.44251664  .00002590  00000+0  95604-3 0  9995
2 25477  45.0091  79.3064 0003023 231.3637 128.6939 14.34681740315643
